{
  "type": "FeatureCollection",
  "features": [
    {
      "type": "Feature",
      "properties": {
        "norad_id": 45526,
        "name": "FENGYUN 1C DEB",
        "group": "fengyun-1c-debris",
        "lat": 67.55205578266143,
        "lon": 35.139441205647074,
        "alt_km": 834.937624661171,
        "timestamp": "2025-12-10T21:43:22.378428+00:00",
        "meta_object_name": "FENGYUN 1C DEB",
        "meta_object_id": "1999-025EYR",
        "meta_epoch": "2025-12-09T03:17:36.206304",
        "meta_mean_motion": 14.25890267,
        "meta_eccentricity": 0.00541262,
        "meta_inclination": 98.7623,
        "meta_ra_of_asc_node": 55.2922,
        "meta_arg_of_pericenter": 232.7582,
        "meta_mean_anomaly": 126.8653,
        "meta_ephemeris_type": 0,
        "meta_classification_type": "U",
        "meta_norad_cat_id": 45526,
        "meta_element_set_no": 999,
        "meta_rev_at_epoch": 43325,
        "meta_bstar": 0.002250424,
        "meta_mean_motion_dot": 5.4e-05,
        "meta_mean_motion_ddot": 0,
        "tle_line1": "1 45526U 99025EYR 25343.13722461  .00005400  00000+0  22504-2 0  9993",
        "tle_line2": "2 45526  98.7623  55.2922 0054126 232.7582 126.8653 14.25890267433253"
      },
      "geometry": {
        "type": "Point",
        "coordinates": [
          35.139441205647074,
          67.55205578266143
        ]
      }
    },
    {
      "type": "Feature",
      "properties": {
        "norad_id": 45527,
        "name": "FENGYUN 1C DEB",
        "group": "fengyun-1c-debris",
        "lat": 80.02526490356485,
        "lon": -9.44268568931983,
        "alt_km": 835.4515260931939,
        "timestamp": "2025-12-10T21:43:22.378440+00:00",
        "meta_object_name": "FENGYUN 1C DEB",
        "meta_object_id": "1999-025EYS",
        "meta_epoch": "2025-12-09T14:58:34.836384",
        "meta_mean_motion": 14.24468138,
        "meta_eccentricity": 0.0055018,
        "meta_inclination": 98.7374,
        "meta_ra_of_asc_node": 50.2608,
        "meta_arg_of_pericenter": 234.6842,
        "meta_mean_anomaly": 124.9185,
        "meta_ephemeris_type": 0,
        "meta_classification_type": "U",
        "meta_norad_cat_id": 45527,
        "meta_element_set_no": 999,
        "meta_rev_at_epoch": 39535,
        "meta_bstar": 0.0025833,
        "meta_mean_motion_dot": 6.039e-05,
        "meta_mean_motion_ddot": 0,
        "tle_line1": "1 45527U 99025EYS 25343.62401431  .00006039  00000+0  25833-2 0  9996",
        "tle_line2": "2 45527  98.7374  50.2608 0055018 234.6842 124.9185 14.24468138395358"
      },
      "geometry": {
        "type": "Point",
        "coordinates": [
          -9.44268568931983,
          80.02526490356485
        ]
      }
    },
    {
      "type": "Feature",
      "properties": {
        "norad_id": 46440,
        "name": "FENGYUN 1C DEB",
        "group": "fengyun-1c-debris",
        "lat": 70.02781691343368,
        "lon": -143.46128126420197,
        "alt_km": 709.7710453956306,
        "timestamp": "2025-12-10T21:43:22.378450+00:00",
        "meta_object_name": "FENGYUN 1C DEB",
        "meta_object_id": "1999-025EYV",
        "meta_epoch": "2025-12-09T20:39:53.273664",
        "meta_mean_motion": 14.20313066,
        "meta_eccentricity": 0.01761433,
        "meta_inclination": 98.5935,
        "meta_ra_of_asc_node": 10.9357,
        "meta_arg_of_pericenter": 143.5356,
        "meta_mean_anomaly": 30.0646,
        "meta_ephemeris_type": 0,
        "meta_classification_type": "U",
        "meta_norad_cat_id": 46440,
        "meta_element_set_no": 999,
        "meta_rev_at_epoch": 62328,
        "meta_bstar": 0.00048502301,
        "meta_mean_motion_dot": 1.17e-05,
        "meta_mean_motion_ddot": 0,
        "tle_line1": "1 46440U 99025EYV 25343.86103326  .00001170  00000+0  48502-3 0  9999",
        "tle_line2": "2 46440  98.5935  10.9357 0176143 143.5356  30.0646 14.20313066623289"
      },
      "geometry": {
        "type": "Point",
        "coordinates": [
          -143.46128126420197,
          70.02781691343368
        ]
      }
    },
    {
      "type": "Feature",
      "properties": {
        "norad_id": 46443,
        "name": "FENGYUN 1C DEB",
        "group": "fengyun-1c-debris",
        "lat": 7.927769087372338,
        "lon": 50.44609915960667,
        "alt_km": 788.9958906021602,
        "timestamp": "2025-12-10T21:43:22.378460+00:00",
        "meta_object_name": "FENGYUN 1C DEB",
        "meta_object_id": "1999-025EYY",
        "meta_epoch": "2025-12-10T10:03:33.079968",
        "meta_mean_motion": 14.10816781,
        "meta_eccentricity": 0.00965411,
        "meta_inclination": 99.2139,
        "meta_ra_of_asc_node": 51.2431,
        "meta_arg_of_pericenter": 2.6286,
        "meta_mean_anomaly": 58.4409,
        "meta_ephemeris_type": 0,
        "meta_classification_type": "U",
        "meta_norad_cat_id": 46443,
        "meta_element_set_no": 999,
        "meta_rev_at_epoch": 59563,
        "meta_bstar": 0.0024182078,
        "meta_mean_motion_dot": 4.479e-05,
        "meta_mean_motion_ddot": 0,
        "tle_line1": "1 46443U 99025EYY 25344.41913287  .00004479  00000+0  24182-2 0  9991",
        "tle_line2": "2 46443  99.2139  51.2431 0096541   2.6286  58.4409 14.10816781595636"
      },
      "geometry": {
        "type": "Point",
        "coordinates": [
          50.44609915960667,
          7.927769087372338
        ]
      }
    },
    {
      "type": "Feature",
      "properties": {
        "norad_id": 46444,
        "name": "FENGYUN 1C DEB",
        "group": "fengyun-1c-debris",
        "lat": -57.31225951108852,
        "lon": 0.44675193049663003,
        "alt_km": 858.0584199861096,
        "timestamp": "2025-12-10T21:43:22.378471+00:00",
        "meta_object_name": "FENGYUN 1C DEB",
        "meta_object_id": "1999-025EYZ",
        "meta_epoch": "2025-12-10T06:55:42.866112",
        "meta_mean_motion": 14.2714604,
        "meta_eccentricity": 0.0084275,
        "meta_inclination": 98.5133,
        "meta_ra_of_asc_node": 346.348,
        "meta_arg_of_pericenter": 158.032,
        "meta_mean_anomaly": 217.9219,
        "meta_ephemeris_type": 0,
        "meta_classification_type": "U",
        "meta_norad_cat_id": 46444,
        "meta_element_set_no": 999,
        "meta_rev_at_epoch": 62547,
        "meta_bstar": 0.00072626,
        "meta_mean_motion_dot": 1.798e-05,
        "meta_mean_motion_ddot": 0,
        "tle_line1": "1 46444U 99025EYZ 25344.28869058  .00001798  00000+0  72626-3 0  9991",
        "tle_line2": "2 46444  98.5133 346.3480 0084275 158.0320 217.9219 14.27146040625470"
      },
      "geometry": {
        "type": "Point",
        "coordinates": [
          0.44675193049663003,
          -57.31225951108852
        ]
      }
    },
    {
      "type": "Feature",
      "properties": {
        "norad_id": 46449,
        "name": "FENGYUN 1C DEB",
        "group": "fengyun-1c-debris",
        "lat": 32.31341850261579,
        "lon": -155.1426698454193,
        "alt_km": 917.1582804505315,
        "timestamp": "2025-12-10T21:43:22.378483+00:00",
        "meta_object_name": "FENGYUN 1C DEB",
        "meta_object_id": "1999-025EZE",
        "meta_epoch": "2025-11-27T19:57:02.428704",
        "meta_mean_motion": 14.19021773,
        "meta_eccentricity": 0.02029501,
        "meta_inclination": 98.6463,
        "meta_ra_of_asc_node": 6.5721,
        "meta_arg_of_pericenter": 314.0231,
        "meta_mean_anomaly": 44.4375,
        "meta_ephemeris_type": 0,
        "meta_classification_type": "U",
        "meta_norad_cat_id": 46449,
        "meta_element_set_no": 999,
        "meta_rev_at_epoch": 57425,
        "meta_bstar": 0.00050383916,
        "meta_mean_motion_dot": 1.244e-05,
        "meta_mean_motion_ddot": 0,
        "tle_line1": "1 46449U 99025EZE 25331.83127811  .00001244  00000+0  50384-3 0  9990",
        "tle_line2": "2 46449  98.6463   6.5721 0202950 314.0231  44.4375 14.19021773574253"
      },
      "geometry": {
        "type": "Point",
        "coordinates": [
          -155.1426698454193,
          32.31341850261579
        ]
      }
    },
    {
      "type": "Feature",
      "properties": {
        "norad_id": 46450,
        "name": "FENGYUN 1C DEB",
        "group": "fengyun-1c-debris",
        "lat": 50.204116399506056,
        "lon": -168.06063134558286,
        "alt_km": 749.1369177756615,
        "timestamp": "2025-12-10T21:43:22.378493+00:00",
        "meta_object_name": "FENGYUN 1C DEB",
        "meta_object_id": "1999-025EZF",
        "meta_epoch": "2025-12-05T08:02:04.531488",
        "meta_mean_motion": 14.03487507,
        "meta_eccentricity": 0.0182173,
        "meta_inclination": 98.079,
        "meta_ra_of_asc_node": 196.8025,
        "meta_arg_of_pericenter": 82.0832,
        "meta_mean_anomaly": 280.097,
        "meta_ephemeris_type": 0,
        "meta_classification_type": "U",
        "meta_norad_cat_id": 46450,
        "meta_element_set_no": 999,
        "meta_rev_at_epoch": 61015,
        "meta_bstar": 0.0037253219,
        "meta_mean_motion_dot": 6.729e-05,
        "meta_mean_motion_ddot": 0,
        "tle_line1": "1 46450U 99025EZF 25339.33477467  .00006729  00000+0  37253-2 0  9992",
        "tle_line2": "2 46450  98.0790 196.8025 0182173  82.0832 280.0970 14.03487507610158"
      },
      "geometry": {
        "type": "Point",
        "coordinates": [
          -168.06063134558286,
          50.204116399506056
        ]
      }
    }
  ]
}